BEIDOU-2 IGSO-1 (C06)   
1 36828U 10036A   25319.51552984 -.00000044  00000+0  00000+0 0  9993
2 36828  54.2794 164.8948 0050831 215.9297 326.8706  1.00284412 55950
BEIDOU-2 G4 (C04)       
1 37210U 10057A   25326.61823454 -.00000090  00000+0  00000+0 0  9995
2 37210   3.1322  69.9954 0010286 185.3098 189.1787  1.00272923 55220
BEIDOU-2 IGSO-2 (C07)   
1 37256U 10068A   25323.81066801 -.00000218  00000+0  00000+0 0  9993
2 37256  47.9309 274.4330 0049685 216.9575 325.8733  1.00294299 54698
BEIDOU-2 IGSO-3 (C08)   
1 37384U 11013A   25326.68085278 -.00000183  00000+0  00000+0 0  9994
2 37384  62.1161  42.1103 0036101 185.6120 187.1081  1.00275894 53593
BEIDOU-2 IGSO-4 (C09)   
1 37763U 11038A   25326.53356068  .00000061  00000+0  00000+0 0  9998
2 37763  54.5690 167.5284 0148292 230.2166 309.7529  1.00286349 52573
BEIDOU-2 IGSO-5 (C10)   
1 37948U 11073A   25326.31982042 -.00000164  00000+0  00000+0 0  9990
2 37948  48.0596 274.1093 0108090 222.2069 132.3415  1.00251872 51058
BEIDOU-2 G5 (C05)       
1 38091U 12008A   25326.68687711  .00000078  00000+0  00000+0 0  9997
2 38091   3.0567  70.7715 0011502 225.1698  71.9848  1.00270313 50293
BEIDOU-2 M3 (C11)       
1 38250U 12018A   25326.45976086 -.00000058  00000+0  00000+0 0  9995
2 38250  55.9374 311.8394 0024667 272.5525  87.1594  1.86229962 92094
BEIDOU-2 M4 (C12)       
1 38251U 12018B   25325.31786832 -.00000066  00000+0  00000+0 0  9997
2 38251  55.8399 311.1085 0015793 274.9546  84.8581  1.86229676 92070
BEIDOU-2 M6 (C14)       
1 38775U 12050B   25323.41801706 -.00000061  00000+0  00000+0 0  9996
2 38775  56.3588  69.8413 0010611 348.6953  11.2652  1.86230950 89407
BEIDOU-2 G6 (C02)       
1 38953U 12059A   25326.46050022 -.00000155  00000+0  00000+0 0  9992
2 38953   3.8952  75.7019 0007059 296.1211 299.6936  1.00274026 47837
BEIDOU-3S IGSO-1S (C31) 
1 40549U 15019A   25297.52891953 -.00000131  00000+0  00000+0 0  9999
2 40549  49.6453 298.3029 0040504 197.6198 177.4401  1.00251575 38711
BEIDOU-3S M2S (C58)     
1 40748U 15037A   25326.05990611 -.00000061  00000+0  00000+0 0  9994
2 40748  55.0571 309.1739 0012669 265.5048  94.3419  1.86229239 70261
BEIDOU-3S M1S (C57)     
1 40749U 15037B   25326.29281365 -.00000059  00000+0  00000+0 0  9997
2 40749  55.0537 309.1555 0003232 354.0015   5.9865  1.86254046 70272
BEIDOU-3S IGSO-2S (C56) 
1 40938U 15053A   25325.76704313 -.00000140  00000+0  00000+0 0  9990
2 40938  49.5465 261.2556 0060837 189.3387 342.7197  1.00275265 37279
BEIDOU-2 IGSO-6 (C13)   
1 41434U 16021A   25326.67647490 -.00000143  00000+0  00000+0 0  9994
2 41434  59.9361  40.1022 0059177 230.5960 127.3539  1.00258943 35408
BEIDOU-2 G7 (C03)       
1 41586U 16037A   25325.66520297 -.00000332  00000+0  00000+0 0  9992
2 41586   1.7034  67.5384 0005264 332.6575  10.7439  1.00268968  4808
BEIDOU-3 M1 (C19)       
1 43001U 17069A   25325.86830624 -.00000041  00000+0  00000+0 0  9999
2 43001  56.5089  69.9242 0008352 303.4401  56.4743  1.86231249 54743
BEIDOU-3 M2 (C20)       
1 43002U 17069B   25325.80664131 -.00000041  00000+0  00000+0 0  9992
2 43002  56.5083  69.9620 0005853 335.1852  24.7805  1.86230846 54731
BEIDOU-3 M7 (C27)       
1 43107U 18003A   25322.32830200 -.00000082  00000+0  00000+0 0  9998
2 43107  54.5185 309.6637 0002389  75.5772 284.4444  1.86232569 53420
BEIDOU-3 M8 (C28)       
1 43108U 18003B   25325.49471851 -.00000066  00000+0  00000+0 0  9995
2 43108  54.5085 309.5367 0004917 270.9742  88.9611  1.86231055 53495
BEIDOU-3 M4 (C22)       
1 43207U 18018A   25326.47350714 -.00000035  00000+0  00000+0 0  9990
2 43207  56.4685  69.9754 0003946  21.1659 338.8474  1.86231186 52895
BEIDOU-3 M3 (C21)       
1 43208U 18018B   25323.31830237 -.00000061  00000+0  00000+0 0  9993
2 43208  56.4656  70.0834 0005729 319.1825  40.7583  1.86231348 52836
BEIDOU-3 M9 (C29)       
1 43245U 18029A   25322.99730738 -.00000080  00000+0  00000+0 0  9995
2 43245  54.3875 307.2958 0001856 267.9159  92.0533  1.86228428 51981
BEIDOU-3 M10 (C30)      
1 43246U 18029B   25326.15441796 -.00000060  00000+0  00000+0 0  9999
2 43246  54.3821 307.2132 0003781 357.2856   2.7024  1.86229167 52023
BEIDOU-2 IGSO-7 (C16)   
1 43539U 18057A   25325.97586641 -.00000040  00000+0  00000+0 0  9991
2 43539  55.1720 164.8539 0092033 235.2247 124.3820  1.00263616 27053
BEIDOU-3 M5 (C23)       
1 43581U 18062A   25325.30532837  .00000075  00000+0  00000+0 0  9996
2 43581  54.0890 189.3730 0002312 345.1103  14.9879  1.86228845 49763
BEIDOU-3 M6 (C24)       
1 43582U 18062B   25326.24242269  .00000071  00000+0  00000+0 0  9994
2 43582  54.0888 189.3304 0007641  44.0613 316.1022  1.86229899 49788
BEIDOU-3 M12 (C26)      
1 43602U 18067A   25321.88435323  .00000077  00000+0  00000+0 0  9998
2 43602  54.1830 188.2070 0009026  39.0032 321.1635  1.86227747 49185
BEIDOU-3 M11 (C25)      
1 43603U 18067B   25324.16664517  .00000080  00000+0  00000+0 0  9996
2 43603  54.1803 188.0936 0005502  34.2168 325.9245  1.86227269 49253
BEIDOU-3 M13 (C32)      
1 43622U 18072A   25326.27107983 -.00000038  00000+0  00000+0 0  9990
2 43622  56.4416  69.4983 0005184 299.3463  60.5988  1.86230964 48803
BEIDOU-3 M14 (C33)      
1 43623U 18072B   25325.59958530 -.00000044  00000+0  00000+0 0  9994
2 43623  56.4428  69.5144 0002745 343.5068  16.4776  1.86231026 48782
BEIDOU-3 M16 (C35)      
1 43647U 18078A   25326.29466836 -.00000059  00000+0  00000+0 0  9993
2 43647  54.2808 307.2361 0006761  17.6776 342.3362  1.86232396 48307
BEIDOU-3 M15 (C34)      
1 43648U 18078B   25325.88692289 -.00000062  00000+0  00000+0 0  9995
2 43648  54.2769 307.2513 0003366  15.9739 344.0264  1.86232301 48318
BEIDOU-3 G1 (C59)       
1 43683U 18085A   25326.62336478 -.00000256  00000+0  00000+0 0  9995
2 43683   2.5547 103.6114 0001874  48.1189 274.6207  1.00268604 25985
BEIDOU-3 M17 (C36)      
1 43706U 18093A   25326.36851985  .00000070  00000+0  00000+0 0  9999
2 43706  54.1726 189.3138 0006595 305.7245 271.0813  1.86228470 47686
BEIDOU-3 M18 (C37)      
1 43707U 18093B   25324.83261001  .00000077  00000+0  00000+0 0  9991
2 43707  54.1734 189.3579 0006538 348.6313  11.4598  1.86226757 47653
BEIDOU-3 IGSO-1 (C38)   
1 44204U 19023A   25323.59378135 -.00000226  00000+0  00000+0 0  9994
2 44204  58.4003  39.8168 0026966 221.2202 126.9723  1.00252177  5102
BEIDOU-2 G8 (C01)       
1 44231U 19027A   25326.62336478 -.00000225  00000+0  00000+0 0  9998
2 44231   1.6085  74.6578 0007678 257.7977  98.3680  1.00274730 24009
BEIDOU-3 IGSO-2 (C39)   
1 44337U 19035A   25325.96101517 -.00000046  00000+0  00000+0 0  9995
2 44337  55.2206 160.6848 0037383 202.0215 163.9298  1.00277946 23595
BEIDOU-3 M24 (C46)      
1 44542U 19061A   25325.97787389  .00000072  00000+0  00000+0 0  9998
2 44542  54.4002 189.7172 0009530  22.0076 338.1372  1.86229445 41930
BEIDOU-3 M23 (C45)      
1 44543U 19061B   25325.34758516  .00000075  00000+0  00000+0 0  9993
2 44543  54.3986 189.7068 0006028  18.6962 191.7037  1.86229672 41921
BEIDOU-3 IGSO-3 (C40)   
1 44709U 19073A   25324.29956875 -.00000206  00000+0  00000+0 0  9998
2 44709  55.1630 283.1590 0044538 191.5856 168.2409  1.00250097 22360
BEIDOU-3 M22 (C44)      
1 44793U 19078A   25326.35504166 -.00000059  00000+0  00000+0 0  9993
2 44793  54.1272 307.1016 0005417  21.9977 338.0158  1.86232118 40790
BEIDOU-3 M21 (C43)      
1 44794U 19078B   25325.95528720 -.00000062  00000+0  00000+0 0  9995
2 44794  54.1006 307.0811 0003681   8.5839 351.4122  1.86227832 40794
BEIDOU-3 M19 (C41)      
1 44864U 19090A   25326.18832486 -.00000038  00000+0  00000+0 0  9993
2 44864  56.3755  69.6437 0017166 284.2021  67.6051  1.86231562 40377
BEIDOU-3 M20 (C42)      
1 44865U 19090B   25321.34809936 -.00000065  00000+0  00000+0 0  9991
2 44865  56.3736  69.8376 0014104 297.7158 138.5807  1.86231498 40274
BEIDOU-3 G2 (C60)       
1 45344U 20017A   25326.60237444 -.00000121  00000+0  00000+0 0  9991
2 45344   2.9618  43.3647 0003879 266.5483  48.8559  1.00272625 21182
BEIDOU-3 G3 (C61)       
1 45807U 20040A   25326.67976825 -.00000333  00000+0  00000+0 0  9996
2 45807   1.9402  66.4078 0004927 313.1010  37.7040  1.00273572 19990
BEIDOU-3 G4 (C62)       
1 56564U 23066A   25326.66829524 -.00000089  00000+0  00000+0 0  9999
2 56564   0.8613 300.3819 0003744 225.9610 296.2235  1.00272518  9322
BEIDOU-3 M28 (C50)      
1 58654U 23207A   25323.88580427 -.00000060  00000+0  00000+0 0  9994
2 58654  55.5648  69.3753 0001539 256.9132 103.0559  1.86229828 12947
BEIDOU-3 M26 (C48)      
1 58655U 23207B   25325.83145420 -.00000043  00000+0  00000+0 0  9993
2 58655  55.5687  69.2957 0003096 245.2391 114.7233  1.86231348 12964
BEIDOU-3 M25 (C47)      
1 61186U 24168B   25326.19467295 -.00000061  00000+0  00000+0 0  9990
2 61186  54.6606 309.4324 0005574 292.1176  68.3392  1.86230307  7935
BEIDOU-3 M27 (C49)      
1 61187U 24168C   25326.52732064 -.00000059  00000+0  00000+0 0  9994
2 61187  54.6558 309.4047 0002240 324.8124  33.5984  1.86230426  5400
